ONEWEB-0233             
1 48795U 21045AE  26198.13752885  .00000176  00000+0  43248-3 0  9997
2 48795  87.8980 253.2669 0002278 103.6066 256.5319 13.15550569248239
ONEWEB-0190             
1 48796U 21045AF  26198.12499708 -.00000005  00000+0 -47096-4 0  9998
2 48796  87.8989 253.2329 0002324 114.5599 245.5774 13.15549312248301
ONEWEB-0236             
1 48797U 21045AG  26197.68608793  .00000201  00000+0  50004-3 0  9993
2 48797  87.8984 253.3280 0002124  95.1104 265.0268 13.15548637248133
ONEWEB-0248             
1 48798U 21045AH  26198.07904243  .00000148  00000+0  35933-3 0  9991
2 48798  87.8993 253.2363 0002469 105.4740 254.6663 13.15549452248340
ONEWEB-0225             
1 48799U 21045AJ  26198.10123357 -.00000067  00000+0 -21152-3 0  9995
2 48799  87.8987 253.2390 0002289 111.5077 248.6297 13.15548511248357
ONEWEB-0215             
1 48800U 21045AK  26198.14717556  .00000172  00000+0  42305-3 0  9990
2 48800  87.8993 253.2140 0002443 112.4001 247.7389 13.15549199248231
ONEWEB-0216             
1 48801U 21045AL  26197.70034801 -.00000042  00000+0 -14503-3 0  9994
2 48801  87.8991 253.3166 0002042  98.0738 262.0624 13.15548359248183
ONEWEB-0239             
1 48802U 21045AM  26198.08538985  .00000092  00000+0  20935-3 0  9998
2 48802  87.8982 253.2438 0002722 109.3002 250.8423 13.15548224248273
ONEWEB-0249             
1 48967U 21060A   26198.29966584  .00000049  00000+0  95698-4 0  9991
2 48967  87.9080 222.7966 0002166  95.0938 265.0440 13.16592506243571
ONEWEB-0250             
1 48968U 21060B   26198.04181460  .00000029  00000+0  36632-4 0  9998
2 48968  87.9080 220.5068 0003056  84.1964 275.9521 13.25835375244179
ONEWEB-0252             
1 48970U 21060D   26197.57058455 -.00000050  00000+0 -16391-3 0  9990
2 48970  87.9078 222.9336 0001870  96.2308 263.9036 13.16595307243525
ONEWEB-0253             
1 48971U 21060E   26198.01548441  .00000001  00000+0 -30245-4 0  9990
2 48971  87.9079 222.8505 0002206  93.2883 266.8500 13.16595405243519
ONEWEB-0254             
1 48972U 21060F   26198.02499199 -.00000012  00000+0 -64009-4 0  9995
2 48972  87.9080 222.8468 0002335  98.3284 261.8112 13.16594005243513
ONEWEB-0255             
1 48973U 21060G   26198.06299018  .00000080  00000+0  17525-3 0  9991
2 48973  87.9078 222.8454 0002172  97.6248 262.5129 13.16594178243592
ONEWEB-0256             
1 48974U 21060H   26198.01312293 -.00001062  00000+0 -28118-2 0  9990
2 48974  87.9069 222.8580 0001827  89.4075 270.7266 13.16583479243557
ONEWEB-0257             
1 48975U 21060J   26198.04557360  .00000072  00000+0  15378-3 0  9993
2 48975  87.9076 222.8402 0002058  98.0317 262.1047 13.16593756243518
