{"fetched_at":"2026-07-17T17:37:53.421Z","source":"https://celestrak.org/NORAD/elements/gp.php?GROUP=oneweb&FORMAT=JSON","constellation":"oneweb","records":[{"OBJECT_NAME":"ONEWEB-0233","OBJECT_ID":"2021-045AE","EPOCH":"2026-07-17T03:18:02.492640","CLASSIFICATION_TYPE":"U","MEAN_MOTION":13.15550569,"ECCENTRICITY":0.00022788,"INCLINATION":87.898,"RA_OF_ASC_NODE":253.2669,"ARG_OF_PERICENTER":103.6066,"MEAN_ANOMALY":256.5319,"EPHEMERIS_TYPE":0,"NORAD_CAT_ID":48795,"ELEMENT_SET_NO":999,"REV_AT_EPOCH":24823,"BSTAR":0.00043248472,"MEAN_MOTION_DOT":0.00000176,"MEAN_MOTION_DDOT":0},{"OBJECT_NAME":"ONEWEB-0190","OBJECT_ID":"2021-045AF","EPOCH":"2026-07-17T02:59:59.747712","CLASSIFICATION_TYPE":"U","MEAN_MOTION":13.15549312,"ECCENTRICITY":0.00023244,"INCLINATION":87.8989,"RA_OF_ASC_NODE":253.2329,"ARG_OF_PERICENTER":114.5599,"MEAN_ANOMALY":245.5774,"EPHEMERIS_TYPE":0,"NORAD_CAT_ID":48796,"ELEMENT_SET_NO":999,"REV_AT_EPOCH":24830,"BSTAR":-0.000047096131,"MEAN_MOTION_DOT":-5e-8,"MEAN_MOTION_DDOT":0},{"OBJECT_NAME":"ONEWEB-0236","OBJECT_ID":"2021-045AG","EPOCH":"2026-07-16T16:27:57.997152","CLASSIFICATION_TYPE":"U","MEAN_MOTION":13.15548637,"ECCENTRICITY":0.00021248,"INCLINATION":87.8984,"RA_OF_ASC_NODE":253.328,"ARG_OF_PERICENTER":95.1104,"MEAN_ANOMALY":265.0268,"EPHEMERIS_TYPE":0,"NORAD_CAT_ID":48797,"ELEMENT_SET_NO":999,"REV_AT_EPOCH":24813,"BSTAR":0.00050003639,"MEAN_MOTION_DOT":0.00000201,"MEAN_MOTION_DDOT":0},{"OBJECT_NAME":"ONEWEB-0248","OBJECT_ID":"2021-045AH","EPOCH":"2026-07-17T01:53:49.265952","CLASSIFICATION_TYPE":"U","MEAN_MOTION":13.15549452,"ECCENTRICITY":0.0002469,"INCLINATION":87.8993,"RA_OF_ASC_NODE":253.2363,"ARG_OF_PERICENTER":105.474,"MEAN_ANOMALY":254.6663,"EPHEMERIS_TYPE":0,"NORAD_CAT_ID":48798,"ELEMENT_SET_NO":999,"REV_AT_EPOCH":24834,"BSTAR":0.00035933059,"MEAN_MOTION_DOT":0.00000148,"MEAN_MOTION_DDOT":0},{"OBJECT_NAME":"ONEWEB-0225","OBJECT_ID":"2021-045AJ","EPOCH":"2026-07-17T02:25:46.580448","CLASSIFICATION_TYPE":"U","MEAN_MOTION":13.15548511,"ECCENTRICITY":0.00022899,"INCLINATION":87.8987,"RA_OF_ASC_NODE":253.239,"ARG_OF_PERICENTER":111.5077,"MEAN_ANOMALY":248.6297,"EPHEMERIS_TYPE":0,"NORAD_CAT_ID":48799,"ELEMENT_SET_NO":999,"REV_AT_EPOCH":24835,"BSTAR":-0.00021152289,"MEAN_MOTION_DOT":-6.7e-7,"MEAN_MOTION_DDOT":0},{"OBJECT_NAME":"ONEWEB-0215","OBJECT_ID":"2021-045AK","EPOCH":"2026-07-17T03:31:55.968384","CLASSIFICATION_TYPE":"U","MEAN_MOTION":13.15549199,"ECCENTRICITY":0.0002443,"INCLINATION":87.8993,"RA_OF_ASC_NODE":253.214,"ARG_OF_PERICENTER":112.4001,"MEAN_ANOMALY":247.7389,"EPHEMERIS_TYPE":0,"NORAD_CAT_ID":48800,"ELEMENT_SET_NO":999,"REV_AT_EPOCH":24823,"BSTAR":0.00042304547,"MEAN_MOTION_DOT":0.00000172,"MEAN_MOTION_DDOT":0},{"OBJECT_NAME":"ONEWEB-0216","OBJECT_ID":"2021-045AL","EPOCH":"2026-07-16T16:48:30.068064","CLASSIFICATION_TYPE":"U","MEAN_MOTION":13.15548359,"ECCENTRICITY":0.00020427,"INCLINATION":87.8991,"RA_OF_ASC_NODE":253.3166,"ARG_OF_PERICENTER":98.0738,"MEAN_ANOMALY":262.0624,"EPHEMERIS_TYPE":0,"NORAD_CAT_ID":48801,"ELEMENT_SET_NO":999,"REV_AT_EPOCH":24818,"BSTAR":-0.00014503208,"MEAN_MOTION_DOT":-4.2e-7,"MEAN_MOTION_DDOT":0},{"OBJECT_NAME":"ONEWEB-0239","OBJECT_ID":"2021-045AM","EPOCH":"2026-07-17T02:02:57.683040","CLASSIFICATION_TYPE":"U","MEAN_MOTION":13.15548224,"ECCENTRICITY":0.00027225,"INCLINATION":87.8982,"RA_OF_ASC_NODE":253.2438,"ARG_OF_PERICENTER":109.3002,"MEAN_ANOMALY":250.8423,"EPHEMERIS_TYPE":0,"NORAD_CAT_ID":48802,"ELEMENT_SET_NO":999,"REV_AT_EPOCH":24827,"BSTAR":0.0002093527,"MEAN_MOTION_DOT":9.2e-7,"MEAN_MOTION_DDOT":0},{"OBJECT_NAME":"ONEWEB-0249","OBJECT_ID":"2021-060A","EPOCH":"2026-07-17T07:11:31.128576","CLASSIFICATION_TYPE":"U","MEAN_MOTION":13.16592506,"ECCENTRICITY":0.00021665,"INCLINATION":87.908,"RA_OF_ASC_NODE":222.7966,"ARG_OF_PERICENTER":95.0938,"MEAN_ANOMALY":265.044,"EPHEMERIS_TYPE":0,"NORAD_CAT_ID":48967,"ELEMENT_SET_NO":999,"REV_AT_EPOCH":24357,"BSTAR":0.000095698068,"MEAN_MOTION_DOT":4.9e-7,"MEAN_MOTION_DDOT":0},{"OBJECT_NAME":"ONEWEB-0250","OBJECT_ID":"2021-060B","EPOCH":"2026-07-17T01:00:12.781440","CLASSIFICATION_TYPE":"U","MEAN_MOTION":13.25835375,"ECCENTRICITY":0.00030569,"INCLINATION":87.908,"RA_OF_ASC_NODE":220.5068,"ARG_OF_PERICENTER":84.1964,"MEAN_ANOMALY":275.9521,"EPHEMERIS_TYPE":0,"NORAD_CAT_ID":48968,"ELEMENT_SET_NO":999,"REV_AT_EPOCH":24417,"BSTAR":0.0000366319,"MEAN_MOTION_DOT":2.9e-7,"MEAN_MOTION_DDOT":0},{"OBJECT_NAME":"ONEWEB-0252","OBJECT_ID":"2021-060D","EPOCH":"2026-07-16T13:41:38.505120","CLASSIFICATION_TYPE":"U","MEAN_MOTION":13.16595307,"ECCENTRICITY":0.00018706,"INCLINATION":87.9078,"RA_OF_ASC_NODE":222.9336,"ARG_OF_PERICENTER":96.2308,"MEAN_ANOMALY":263.9036,"EPHEMERIS_TYPE":0,"NORAD_CAT_ID":48970,"ELEMENT_SET_NO":999,"REV_AT_EPOCH":24352,"BSTAR":-0.00016390933,"MEAN_MOTION_DOT":-5e-7,"MEAN_MOTION_DDOT":0},{"OBJECT_NAME":"ONEWEB-0253","OBJECT_ID":"2021-060E","EPOCH":"2026-07-17T00:22:17.853024","CLASSIFICATION_TYPE":"U","MEAN_MOTION":13.16595405,"ECCENTRICITY":0.00022068,"INCLINATION":87.9079,"RA_OF_ASC_NODE":222.8505,"ARG_OF_PERICENTER":93.2883,"MEAN_ANOMALY":266.85,"EPHEMERIS_TYPE":0,"NORAD_CAT_ID":48971,"ELEMENT_SET_NO":999,"REV_AT_EPOCH":24351,"BSTAR":-0.000030244625,"MEAN_MOTION_DOT":1e-8,"MEAN_MOTION_DDOT":0},{"OBJECT_NAME":"ONEWEB-0254","OBJECT_ID":"2021-060F","EPOCH":"2026-07-17T00:35:59.307936","CLASSIFICATION_TYPE":"U","MEAN_MOTION":13.16594005,"ECCENTRICITY":0.00023359,"INCLINATION":87.908,"RA_OF_ASC_NODE":222.8468,"ARG_OF_PERICENTER":98.3284,"MEAN_ANOMALY":261.8112,"EPHEMERIS_TYPE":0,"NORAD_CAT_ID":48972,"ELEMENT_SET_NO":999,"REV_AT_EPOCH":24351,"BSTAR":-0.000064009435,"MEAN_MOTION_DOT":-1.2e-7,"MEAN_MOTION_DDOT":0},{"OBJECT_NAME":"ONEWEB-0255","OBJECT_ID":"2021-060G","EPOCH":"2026-07-17T01:30:42.351552","CLASSIFICATION_TYPE":"U","MEAN_MOTION":13.16594178,"ECCENTRICITY":0.00021727,"INCLINATION":87.9078,"RA_OF_ASC_NODE":222.8454,"ARG_OF_PERICENTER":97.6248,"MEAN_ANOMALY":262.5129,"EPHEMERIS_TYPE":0,"NORAD_CAT_ID":48973,"ELEMENT_SET_NO":999,"REV_AT_EPOCH":24359,"BSTAR":0.00017524655,"MEAN_MOTION_DOT":8e-7,"MEAN_MOTION_DDOT":0},{"OBJECT_NAME":"ONEWEB-0256","OBJECT_ID":"2021-060H","EPOCH":"2026-07-17T00:18:53.821152","CLASSIFICATION_TYPE":"U","MEAN_MOTION":13.16583479,"ECCENTRICITY":0.0001827,"INCLINATION":87.9069,"RA_OF_ASC_NODE":222.858,"ARG_OF_PERICENTER":89.4075,"MEAN_ANOMALY":270.7266,"EPHEMERIS_TYPE":0,"NORAD_CAT_ID":48974,"ELEMENT_SET_NO":999,"REV_AT_EPOCH":24355,"BSTAR":-0.0028117767,"MEAN_MOTION_DOT":-0.00001062,"MEAN_MOTION_DDOT":0},{"OBJECT_NAME":"ONEWEB-0257","OBJECT_ID":"2021-060J","EPOCH":"2026-07-17T01:05:37.559040","CLASSIFICATION_TYPE":"U","MEAN_MOTION":13.16593756,"ECCENTRICITY":0.00020584,"INCLINATION":87.9076,"RA_OF_ASC_NODE":222.8402,"ARG_OF_PERICENTER":98.0317,"MEAN_ANOMALY":262.1047,"EPHEMERIS_TYPE":0,"NORAD_CAT_ID":48975,"ELEMENT_SET_NO":999,"REV_AT_EPOCH":24351,"BSTAR":0.0001537791,"MEAN_MOTION_DOT":7.2e-7,"MEAN_MOTION_DDOT":0}]}
